[
    {
        "OBJECT_NAME": "COSMOS 2522 [GLONASS-M]",
        "OBJECT_ID": "2017-055A",
        "EPOCH": "2026-06-20T21:02:53.474784",
        "MEAN_MOTION": 2.13101192,
        "ECCENTRICITY": 0.0011202,
        "INCLINATION": 64.0794,
        "RA_OF_ASC_NODE": 191.7591,
        "ARG_OF_PERICENTER": 244.2944,
        "MEAN_ANOMALY": 115.6333,
        "EPHEMERIS_TYPE": 0,
        "CLASSIFICATION_TYPE": "U",
        "NORAD_CAT_ID": 42939,
        "ELEMENT_SET_NO": 999,
        "REV_AT_EPOCH": 6805,
        "BSTAR": 0,
        "MEAN_MOTION_DOT": 6.9e-07,
        "MEAN_MOTION_DDOT": 0
    },
    {
        "OBJECT_NAME": "COSMOS 2527 [GLONASS-M]",
        "OBJECT_ID": "2018-053A",
        "EPOCH": "2026-06-19T21:36:22.597920",
        "MEAN_MOTION": 2.13102048,
        "ECCENTRICITY": 0.00069063,
        "INCLINATION": 65.5791,
        "RA_OF_ASC_NODE": 73.817,
        "ARG_OF_PERICENTER": 238.7549,
        "MEAN_ANOMALY": 121.2143,
        "EPHEMERIS_TYPE": 0,
        "CLASSIFICATION_TYPE": "U",
        "NORAD_CAT_ID": 43508,
        "ELEMENT_SET_NO": 999,
        "REV_AT_EPOCH": 6233,
        "BSTAR": 0,
        "MEAN_MOTION_DOT": -3.4e-07,
        "MEAN_MOTION_DDOT": 0
    },
    {
        "OBJECT_NAME": "COSMOS 2529 [GLONASS-M]",
        "OBJECT_ID": "2018-086A",
        "EPOCH": "2026-06-18T02:52:19.877664",
        "MEAN_MOTION": 2.1310195,
        "ECCENTRICITY": 0.00120661,
        "INCLINATION": 64.2948,
        "RA_OF_ASC_NODE": 192.563,
        "ARG_OF_PERICENTER": 256.5324,
        "MEAN_ANOMALY": 103.383,
        "EPHEMERIS_TYPE": 0,
        "CLASSIFICATION_TYPE": "U",
        "NORAD_CAT_ID": 43687,
        "ELEMENT_SET_NO": 999,
        "REV_AT_EPOCH": 5930,
        "BSTAR": 0,
        "MEAN_MOTION_DOT": 5.7e-07,
        "MEAN_MOTION_DDOT": 0
    },
    {
        "OBJECT_NAME": "COSMOS 2534 [GLONASS-M]",
        "OBJECT_ID": "2019-030A",
        "EPOCH": "2026-06-21T09:02:16.923264",
        "MEAN_MOTION": 2.13102244,
        "ECCENTRICITY": 0.0013451,
        "INCLINATION": 64.369,
        "RA_OF_ASC_NODE": 192.4752,
        "ARG_OF_PERICENTER": 275.1251,
        "MEAN_ANOMALY": 197.9596,
        "EPHEMERIS_TYPE": 0,
        "CLASSIFICATION_TYPE": "U",
        "NORAD_CAT_ID": 44299,
        "ELEMENT_SET_NO": 999,
        "REV_AT_EPOCH": 5501,
        "BSTAR": 0,
        "MEAN_MOTION_DOT": 7.4e-07,
        "MEAN_MOTION_DDOT": 0
    },
    {
        "OBJECT_NAME": "COSMOS 2544 [GLONASS-M]",
        "OBJECT_ID": "2019-088A",
        "EPOCH": "2026-06-18T10:29:30.688800",
        "MEAN_MOTION": 2.13102753,
        "ECCENTRICITY": 0.00131277,
        "INCLINATION": 65.5663,
        "RA_OF_ASC_NODE": 73.6893,
        "ARG_OF_PERICENTER": 258.8621,
        "MEAN_ANOMALY": 101.0278,
        "EPHEMERIS_TYPE": 0,
        "CLASSIFICATION_TYPE": "U",
        "NORAD_CAT_ID": 44850,
        "ELEMENT_SET_NO": 999,
        "REV_AT_EPOCH": 5074,
        "BSTAR": 0,
        "MEAN_MOTION_DOT": -2.3e-07,
        "MEAN_MOTION_DDOT": 0
    },
    {
        "OBJECT_NAME": "COSMOS 2545 [GLONASS-M]",
        "OBJECT_ID": "2020-018A",
        "EPOCH": "2026-06-21T10:44:42.252000",
        "MEAN_MOTION": 2.1310233,
        "ECCENTRICITY": 0.0008538,
        "INCLINATION": 64.3522,
        "RA_OF_ASC_NODE": 312.2691,
        "ARG_OF_PERICENTER": 229.7287,
        "MEAN_ANOMALY": 130.1903,
        "EPHEMERIS_TYPE": 0,
        "CLASSIFICATION_TYPE": "U",
        "NORAD_CAT_ID": 45358,
        "ELEMENT_SET_NO": 999,
        "REV_AT_EPOCH": 4875,
        "BSTAR": 0,
        "MEAN_MOTION_DOT": -7e-07,
        "MEAN_MOTION_DDOT": 0
    },
    {
        "OBJECT_NAME": "COSMOS 2547 [GLONASS-K]",
        "OBJECT_ID": "2020-075A",
        "EPOCH": "2026-06-20T05:30:27.070272",
        "MEAN_MOTION": 2.13100029,
        "ECCENTRICITY": 0.0009338,
        "INCLINATION": 64.5997,
        "RA_OF_ASC_NODE": 192.3739,
        "ARG_OF_PERICENTER": 239.8081,
        "MEAN_ANOMALY": 120.1435,
        "EPHEMERIS_TYPE": 0,
        "CLASSIFICATION_TYPE": "U",
        "NORAD_CAT_ID": 46805,
        "ELEMENT_SET_NO": 999,
        "REV_AT_EPOCH": 4397,
        "BSTAR": 0,
        "MEAN_MOTION_DOT": 6.2e-07,
        "MEAN_MOTION_DDOT": 0
    },
    {
        "OBJECT_NAME": "COSMOS 2557 [GLONASS-K]",
        "OBJECT_ID": "2022-075A",
        "EPOCH": "2026-06-20T20:42:45.531936",
        "MEAN_MOTION": 2.13102004,
        "ECCENTRICITY": 0.0010286,
        "INCLINATION": 64.2965,
        "RA_OF_ASC_NODE": 314.3556,
        "ARG_OF_PERICENTER": 273.9736,
        "MEAN_ANOMALY": 85.9018,
        "EPHEMERIS_TYPE": 0,
        "CLASSIFICATION_TYPE": "U",
        "NORAD_CAT_ID": 52984,
        "ELEMENT_SET_NO": 999,
        "REV_AT_EPOCH": 3079,
        "BSTAR": 0,
        "MEAN_MOTION_DOT": -6.7e-07,
        "MEAN_MOTION_DDOT": 0
    },
    {
        "OBJECT_NAME": "COSMOS 2559 [GLONASS-K]",
        "OBJECT_ID": "2022-130A",
        "EPOCH": "2026-06-18T08:04:20.621856",
        "MEAN_MOTION": 2.13101593,
        "ECCENTRICITY": 0.0012585,
        "INCLINATION": 64.2705,
        "RA_OF_ASC_NODE": 314.528,
        "ARG_OF_PERICENTER": 178.204,
        "MEAN_ANOMALY": 181.7898,
        "EPHEMERIS_TYPE": 0,
        "CLASSIFICATION_TYPE": "U",
        "NORAD_CAT_ID": 54031,
        "ELEMENT_SET_NO": 999,
        "REV_AT_EPOCH": 2871,
        "BSTAR": 0,
        "MEAN_MOTION_DOT": -5.8e-07,
        "MEAN_MOTION_DDOT": 0
    },
    {
        "OBJECT_NAME": "COSMOS 2564 [GLONASS-M]",
        "OBJECT_ID": "2022-161A",
        "EPOCH": "2026-06-20T01:21:34.243776",
        "MEAN_MOTION": 2.13102033,
        "ECCENTRICITY": 0.0012215,
        "INCLINATION": 64.742,
        "RA_OF_ASC_NODE": 192.6165,
        "ARG_OF_PERICENTER": 224.8634,
        "MEAN_ANOMALY": 135.0824,
        "EPHEMERIS_TYPE": 0,
        "CLASSIFICATION_TYPE": "U",
        "NORAD_CAT_ID": 54377,
        "ELEMENT_SET_NO": 999,
        "REV_AT_EPOCH": 2769,
        "BSTAR": 0,
        "MEAN_MOTION_DOT": 6.1e-07,
        "MEAN_MOTION_DDOT": 0
    },
    {
        "OBJECT_NAME": "COSMOS 2569 [GLONASS-K2]",
        "OBJECT_ID": "2023-114A",
        "EPOCH": "2026-06-21T00:10:48.011232",
        "MEAN_MOTION": 2.1310372,
        "ECCENTRICITY": 0.0010518,
        "INCLINATION": 65.3042,
        "RA_OF_ASC_NODE": 72.4915,
        "ARG_OF_PERICENTER": 296.8945,
        "MEAN_ANOMALY": 63.0344,
        "EPHEMERIS_TYPE": 0,
        "CLASSIFICATION_TYPE": "U",
        "NORAD_CAT_ID": 57517,
        "ELEMENT_SET_NO": 999,
        "REV_AT_EPOCH": 2234,
        "BSTAR": 0,
        "MEAN_MOTION_DOT": -4.8e-07,
        "MEAN_MOTION_DDOT": 0
    },
    {
        "OBJECT_NAME": "COSMOS 2584 [GLONASS-K2]",
        "OBJECT_ID": "2025-042A",
        "EPOCH": "2026-06-19T22:56:24.809280",
        "MEAN_MOTION": 2.1310391,
        "ECCENTRICITY": 0.00051351,
        "INCLINATION": 65.0856,
        "RA_OF_ASC_NODE": 72.7078,
        "ARG_OF_PERICENTER": 219.8892,
        "MEAN_ANOMALY": 140.1108,
        "EPHEMERIS_TYPE": 0,
        "CLASSIFICATION_TYPE": "U",
        "NORAD_CAT_ID": 63130,
        "ELEMENT_SET_NO": 999,
        "REV_AT_EPOCH": 1010,
        "BSTAR": 0,
        "MEAN_MOTION_DOT": -3.7e-07,
        "MEAN_MOTION_DDOT": 0
    },
    {
        "OBJECT_NAME": "COSMOS 2596 [GLONASS-K1]",
        "OBJECT_ID": "2025-206B",
        "EPOCH": "2026-06-18T10:24:28.997280",
        "MEAN_MOTION": 2.13100598,
        "ECCENTRICITY": 0.0010998,
        "INCLINATION": 64.6338,
        "RA_OF_ASC_NODE": 314.9413,
        "ARG_OF_PERICENTER": 311.7055,
        "MEAN_ANOMALY": 76.8578,
        "EPHEMERIS_TYPE": 0,
        "CLASSIFICATION_TYPE": "U",
        "NORAD_CAT_ID": 65590,
        "ELEMENT_SET_NO": 999,
        "REV_AT_EPOCH": 594,
        "BSTAR": 0,
        "MEAN_MOTION_DOT": -5.7e-07,
        "MEAN_MOTION_DDOT": 0
    }
]